[{"OBJECT_NAME":"HULIANWANG DIGUI-120","OBJECT_ID":"2025-295B","EPOCH":"2026-03-09T15:52:52.087008","MEAN_MOTION":13.43425316,"ECCENTRICITY":0.00016727,"INCLINATION":50.006,"RA_OF_ASC_NODE":23.094,"ARG_OF_PERICENTER":357.7602,"MEAN_ANOMALY":2.3269,"EPHEMERIS_TYPE":0,"CLASSIFICATION_TYPE":"U","NORAD_CAT_ID":67060,"ELEMENT_SET_NO":999,"REV_AT_EPOCH":1225,"BSTAR":0.00011085235,"MEAN_MOTION_DOT":-6.5e-7,"MEAN_MOTION_DDOT":0},{"OBJECT_NAME":"DELTA 1 DEB","OBJECT_ID":"1975-052BV","EPOCH":"2026-03-09T22:16:42.478752","MEAN_MOTION":13.31638064,"ECCENTRICITY":0.00654987,"INCLINATION":99.8295,"RA_OF_ASC_NODE":197.6173,"ARG_OF_PERICENTER":195.0402,"MEAN_ANOMALY":280.4687,"EPHEMERIS_TYPE":0,"CLASSIFICATION_TYPE":"U","NORAD_CAT_ID":21351,"ELEMENT_SET_NO":999,"REV_AT_EPOCH":69099,"BSTAR":0.00016072118,"MEAN_MOTION_DOT":3.6e-7,"MEAN_MOTION_DDOT":0}]
